[{"OBJECT_NAME":"STARLINK-37216","OBJECT_ID":"2026-063M","EPOCH":"2026-04-13T04:48:16.022016","MEAN_MOTION":15.80875013,"ECCENTRICITY":0.00010962,"INCLINATION":97.2834,"RA_OF_ASC_NODE":244.6752,"ARG_OF_PERICENTER":88.3019,"MEAN_ANOMALY":271.8374,"EPHEMERIS_TYPE":0,"CLASSIFICATION_TYPE":"U","NORAD_CAT_ID":68391,"ELEMENT_SET_NO":999,"REV_AT_EPOCH":307,"BSTAR":0.00094147249,"MEAN_MOTION_DOT":0.00184556,"MEAN_MOTION_DDOT":0},{"OBJECT_NAME":"STARLINK-37215","OBJECT_ID":"2026-063N","EPOCH":"2026-04-13T06:18:20.239200","MEAN_MOTION":15.80855579,"ECCENTRICITY":0.00010445,"INCLINATION":97.284,"RA_OF_ASC_NODE":244.7432,"ARG_OF_PERICENTER":78.6612,"MEAN_ANOMALY":281.4774,"EPHEMERIS_TYPE":0,"CLASSIFICATION_TYPE":"U","NORAD_CAT_ID":68392,"ELEMENT_SET_NO":999,"REV_AT_EPOCH":308,"BSTAR":0.00057606507,"MEAN_MOTION_DOT":0.00111827,"MEAN_MOTION_DDOT":0},{"OBJECT_NAME":"STARLINK-37184","OBJECT_ID":"2026-063P","EPOCH":"2026-04-13T03:14:56.821632","MEAN_MOTION":15.80866046,"ECCENTRICITY":7.24e-5,"INCLINATION":97.2838,"RA_OF_ASC_NODE":244.61,"ARG_OF_PERICENTER":96.3063,"MEAN_ANOMALY":263.8288,"EPHEMERIS_TYPE":0,"CLASSIFICATION_TYPE":"U","NORAD_CAT_ID":68393,"ELEMENT_SET_NO":999,"REV_AT_EPOCH":306,"BSTAR":0.00071719309,"MEAN_MOTION_DOT":0.00139774,"MEAN_MOTION_DDOT":0},{"OBJECT_NAME":"STARLINK-37157","OBJECT_ID":"2026-063Q","EPOCH":"2026-04-13T06:00:02.000160","MEAN_MOTION":15.75148173,"ECCENTRICITY":0.00014168,"INCLINATION":97.2844,"RA_OF_ASC_NODE":244.7091,"ARG_OF_PERICENTER":69.7605,"MEAN_ANOMALY":166.7506,"EPHEMERIS_TYPE":0,"CLASSIFICATION_TYPE":"U","NORAD_CAT_ID":68394,"ELEMENT_SET_NO":999,"REV_AT_EPOCH":401,"BSTAR":0.00043755179,"MEAN_MOTION_DOT":0.00065518,"MEAN_MOTION_DDOT":0},{"OBJECT_NAME":"STARLINK-37172","OBJECT_ID":"2026-063R","EPOCH":"2026-04-13T06:00:02.000160","MEAN_MOTION":15.75207701,"ECCENTRICITY":0.00016106,"INCLINATION":97.285,"RA_OF_ASC_NODE":244.7281,"ARG_OF_PERICENTER":74.7185,"MEAN_ANOMALY":207.7772,"EPHEMERIS_TYPE":0,"CLASSIFICATION_TYPE":"U","NORAD_CAT_ID":68395,"ELEMENT_SET_NO":999,"REV_AT_EPOCH":401,"BSTAR":-0.00052243507,"MEAN_MOTION_DOT":-0.00077414,"MEAN_MOTION_DDOT":0},{"OBJECT_NAME":"STARLINK-37190","OBJECT_ID":"2026-063S","EPOCH":"2026-04-13T03:12:47.072160","MEAN_MOTION":15.80861229,"ECCENTRICITY":9.886e-5,"INCLINATION":97.284,"RA_OF_ASC_NODE":244.6108,"ARG_OF_PERICENTER":74.162,"MEAN_ANOMALY":285.9757,"EPHEMERIS_TYPE":0,"CLASSIFICATION_TYPE":"U","NORAD_CAT_ID":68396,"ELEMENT_SET_NO":999,"REV_AT_EPOCH":306,"BSTAR":0.0006432105,"MEAN_MOTION_DOT":0.00125101,"MEAN_MOTION_DDOT":0},{"OBJECT_NAME":"STARLINK-37194","OBJECT_ID":"2026-063T","EPOCH":"2026-04-13T06:12:55.620576","MEAN_MOTION":15.80858347,"ECCENTRICITY":0.00013315,"INCLINATION":97.2841,"RA_OF_ASC_NODE":244.7469,"ARG_OF_PERICENTER":36.4865,"MEAN_ANOMALY":323.6493,"EPHEMERIS_TYPE":0,"CLASSIFICATION_TYPE":"U","NORAD_CAT_ID":68397,"ELEMENT_SET_NO":999,"REV_AT_EPOCH":308,"BSTAR":0.00065370285,"MEAN_MOTION_DOT":0.00127159,"MEAN_MOTION_DDOT":0},{"OBJECT_NAME":"STARLINK-37220","OBJECT_ID":"2026-063U","EPOCH":"2026-04-13T07:41:54.867552","MEAN_MOTION":15.80902943,"ECCENTRICITY":0.00013694,"INCLINATION":97.2837,"RA_OF_ASC_NODE":244.8164,"ARG_OF_PERICENTER":107.5592,"MEAN_ANOMALY":252.5826,"EPHEMERIS_TYPE":0,"CLASSIFICATION_TYPE":"U","NORAD_CAT_ID":68398,"ELEMENT_SET_NO":999,"REV_AT_EPOCH":309,"BSTAR":0.0010586134,"MEAN_MOTION_DOT":0.00208375,"MEAN_MOTION_DDOT":0},{"OBJECT_NAME":"STARLINK-37187","OBJECT_ID":"2026-063V","EPOCH":"2026-04-13T04:40:41.541600","MEAN_MOTION":15.808495,"ECCENTRICITY":0.00011808,"INCLINATION":97.2839,"RA_OF_ASC_NODE":244.681,"ARG_OF_PERICENTER":62.5084,"MEAN_ANOMALY":297.6304,"EPHEMERIS_TYPE":0,"CLASSIFICATION_TYPE":"U","NORAD_CAT_ID":68399,"ELEMENT_SET_NO":999,"REV_AT_EPOCH":307,"BSTAR":0.00049597112,"MEAN_MOTION_DOT":0.00096058,"MEAN_MOTION_DDOT":0},{"OBJECT_NAME":"STARLINK-36235","OBJECT_ID":"2026-063W","EPOCH":"2026-04-13T07:40:50.728512","MEAN_MOTION":15.80851909,"ECCENTRICITY":0.00013664,"INCLINATION":97.284,"RA_OF_ASC_NODE":244.8168,"ARG_OF_PERICENTER":79.7199,"MEAN_ANOMALY":280.4223,"EPHEMERIS_TYPE":0,"CLASSIFICATION_TYPE":"U","NORAD_CAT_ID":68400,"ELEMENT_SET_NO":999,"REV_AT_EPOCH":309,"BSTAR":0.00082415519,"MEAN_MOTION_DOT":0.00160932,"MEAN_MOTION_DDOT":0},{"OBJECT_NAME":"STARLINK-37175","OBJECT_ID":"2026-063X","EPOCH":"2026-04-13T06:00:02.000160","MEAN_MOTION":15.75175448,"ECCENTRICITY":0.0001207,"INCLINATION":97.2852,"RA_OF_ASC_NODE":244.7379,"ARG_OF_PERICENTER":65.9638,"MEAN_ANOMALY":238.5286,"EPHEMERIS_TYPE":0,"CLASSIFICATION_TYPE":"U","NORAD_CAT_ID":68401,"ELEMENT_SET_NO":999,"REV_AT_EPOCH":401,"BSTAR":0.00013037757,"MEAN_MOTION_DOT":0.00019348,"MEAN_MOTION_DDOT":0},{"OBJECT_NAME":"STARLINK-36360","OBJECT_ID":"2026-063Y","EPOCH":"2026-04-13T07:38:40.234272","MEAN_MOTION":15.80878452,"ECCENTRICITY":0.000155,"INCLINATION":97.2842,"RA_OF_ASC_NODE":244.8186,"ARG_OF_PERICENTER":51.7943,"MEAN_ANOMALY":308.3464,"EPHEMERIS_TYPE":0,"CLASSIFICATION_TYPE":"U","NORAD_CAT_ID":68402,"ELEMENT_SET_NO":999,"REV_AT_EPOCH":309,"BSTAR":0.00086913432,"MEAN_MOTION_DOT":0.00170109,"MEAN_MOTION_DDOT":0},{"OBJECT_NAME":"STARLINK-37218","OBJECT_ID":"2026-063Z","EPOCH":"2026-04-13T06:05:21.174720","MEAN_MOTION":15.80849135,"ECCENTRICITY":0.00013759,"INCLINATION":97.284,"RA_OF_ASC_NODE":244.7552,"ARG_OF_PERICENTER":74.256,"MEAN_ANOMALY":285.886,"EPHEMERIS_TYPE":0,"CLASSIFICATION_TYPE":"U","NORAD_CAT_ID":68403,"ELEMENT_SET_NO":999,"REV_AT_EPOCH":308,"BSTAR":0.00038047916,"MEAN_MOTION_DOT":0.00073465,"MEAN_MOTION_DDOT":0},{"OBJECT_NAME":"STARLINK-37188","OBJECT_ID":"2026-063AA","EPOCH":"2026-04-13T07:37:35.317632","MEAN_MOTION":15.80886184,"ECCENTRICITY":0.00012523,"INCLINATION":97.2839,"RA_OF_ASC_NODE":244.8205,"ARG_OF_PERICENTER":76.9619,"MEAN_ANOMALY":283.1789,"EPHEMERIS_TYPE":0,"CLASSIFICATION_TYPE":"U","NORAD_CAT_ID":68404,"ELEMENT_SET_NO":999,"REV_AT_EPOCH":309,"BSTAR":0.00092446144,"MEAN_MOTION_DOT":0.00181242,"MEAN_MOTION_DDOT":0},{"OBJECT_NAME":"SHIYAN-33","OBJECT_ID":"2026-064A","EPOCH":"2026-04-13T16:36:30.464928","MEAN_MOTION":15.23325167,"ECCENTRICITY":0.0014612,"INCLINATION":97.4647,"RA_OF_ASC_NODE":179.548,"ARG_OF_PERICENTER":167.3629,"MEAN_ANOMALY":192.7977,"EPHEMERIS_TYPE":0,"CLASSIFICATION_TYPE":"U","NORAD_CAT_ID":68405,"ELEMENT_SET_NO":999,"REV_AT_EPOCH":267,"BSTAR":0.00013679,"MEAN_MOTION_DOT":3.184e-5,"MEAN_MOTION_DDOT":0},{"OBJECT_NAME":"LPNTSAT-001 (IOD-1)","OBJECT_ID":"2026-065A","EPOCH":"2026-04-13T02:22:38.828928","MEAN_MOTION":15.18319008,"ECCENTRICITY":0.00157459,"INCLINATION":97.4113,"RA_OF_ASC_NODE":344.9654,"ARG_OF_PERICENTER":227.0083,"MEAN_ANOMALY":132.9832,"EPHEMERIS_TYPE":0,"CLASSIFICATION_TYPE":"U","NORAD_CAT_ID":68408,"ELEMENT_SET_NO":999,"REV_AT_EPOCH":238,"BSTAR":9.1346631e-5,"MEAN_MOTION_DOT":1.812e-5,"MEAN_MOTION_DDOT":0}]
