STARLINK-37216
1 68391U 26103.20018519  1.84556-3 9.41472-4 0 0                     
2 68391  97.2834 244.6752 0001096  88.3019 271.8374 15.80875013      
STARLINK-37215
1 68392U 26103.26273148  1.11827-3 5.76065-4 0 0                     
2 68392  97.2840 244.7432 0001044  78.6612 281.4774 15.80855579      
STARLINK-37184
1 68393U 26103.13537037  1.39774-3 7.17193-4 0 0                     
2 68393  97.2838 244.6100 0000724  96.3063 263.8288 15.80866046      
STARLINK-37157
1 68394U 26103.25002315  6.55180-4 4.37552-4 0 0                     
2 68394  97.2844 244.7091 0001416  69.7605 166.7506 15.75148173      
STARLINK-37172
1 68395U 26103.25002315  7.74140-4 5.22435-4 0 0                     
2 68395  97.2850 244.7281 0001610  74.7185 207.7772 15.75207701      
STARLINK-37190
1 68396U 26103.13387731  1.25101-3 6.43210-4 0 0                     
2 68396  97.2840 244.6108 0000988  74.1620 285.9757 15.80861229      
STARLINK-37194
1 68397U 26103.25896991  1.27159-3 6.53703-4 0 0                     
2 68397  97.2841 244.7469 0001331  36.4865 323.6493 15.80858347      
STARLINK-37220
1 68398U 26103.32076389  2.08375-3 1.05861-3 0 0                     
2 68398  97.2837 244.8164 0001369 107.5592 252.5826 15.80902943      
STARLINK-37187
1 68399U 26103.19491898  9.60580-4 4.95971-4 0 0                     
2 68399  97.2839 244.6810 0001180  62.5084 297.6304 15.80849500      
STARLINK-36235
1 68400U 26103.32002315  1.60932-3 8.24155-4 0 0                     
2 68400  97.2840 244.8168 0001366  79.7199 280.4223 15.80851909      
STARLINK-37175
1 68401U 26103.25002315  1.93480-4 1.30378-4 0 0                     
2 68401  97.2852 244.7379 0001207  65.9638 238.5286 15.75175448      
STARLINK-36360
1 68402U 26103.31851852  1.70109-3 8.69134-4 0 0                     
2 68402  97.2842 244.8186 0001550  51.7943 308.3464 15.80878452      
STARLINK-37218
1 68403U 26103.25371528  7.34650-4 3.80479-4 0 0                     
2 68403  97.2840 244.7552 0001375  74.2560 285.8860 15.80849135      
STARLINK-37188
1 68404U 26103.31776620  1.81242-3 9.24461-4 0 0                     
2 68404  97.2839 244.8205 0001252  76.9619 283.1789 15.80886184      
SHIYAN-33
1 68405U 26103.69201389  3.18400-5 1.36790-4 0 0                     
2 68405  97.4647 179.5480 0014612 167.3629 192.7977 15.23325167      
LPNTSAT-001 (IOD-1)
1 68408U 26103.09905093  1.81200-5 9.13466-5 0 0                     
2 68408  97.4113 344.9654 0015745 227.0083 132.9832 15.18319008      
